STARLINK-1503_new
1 15745C 20038R   21326.14896044  .00004563  00000-0  30574-3 0  3262
2 15745  53.0545  78.0798 0001274  86.8176 213.7524 15.06393957    11
STARLINK-1503_old
1 25745C 20038R   21325.17326089  .00003925  00000-0  26304-3 0  3257
2 25745  53.0547  82.4594 0001310  86.7577 319.6562 15.06385763    15
